NORAD_CAT_ID,OBJECT_NAME,OBJECT_TYPE,EPOCH,MEAN_MOTION,ECCENTRICITY,INCLINATION,RA_OF_ASC_NODE,ARG_OF_PERICENTER,MEAN_ANOMALY,BSTAR,MEAN_MOTION_DOT,MEAN_MOTION_DDOT,TLE_LINE0,TLE_LINE1,TLE_LINE2,SEMIMAJOR_AXIS,PERIOD,APOGEE,PERIGEE,DECAYED
52630.0,STARLINK-3989,PAYLOAD,2022-07-11 04:00:00,15.51620681,0.0001202,53.2172,156.6409,59.701,267.3646,-0.019331,-0.01060063,0.0,0 STARLINK-3989,1 52630U 22052AJ  22192.16667824 -.01060063  00000-0 -19331-1 0  9999,2 52630  53.2172 156.6409 0001202  59.7010 267.3646 15.51620681  9396,6790.130999999999,92.806,412.812,411.18,0.0
52630.0,STARLINK-3989,PAYLOAD,2022-07-11 14:00:01,15.50559479,0.0001059,53.2174,154.6453,66.9185,68.1916,-0.013567,-0.00729693,0.0,0 STARLINK-3989,1 52630U 22052AJ  22192.58334491 -.00729693  00000-0 -13567-1 0  9991,2 52630  53.2174 154.6453 0001059  66.9185  68.1916 15.50559479  1303,6793.228,92.87,415.81300000000016,414.374,0.0
52630.0,STARLINK-3989,PAYLOAD,2022-07-11 22:00:00,15.499198300000002,0.0001165,53.2176,153.0509,66.487,130.0443,-0.00099116,-0.0005637,0.0,0 STARLINK-3989,1 52630U 22052AJ  22192.91667824 -.00056370  00000-0 -99116-3 0  9998,2 52630  53.2176 153.0509 0001165  66.4870 130.0443 15.49919830  1307,6795.097,92.908,417.754,416.171,0.0
52630.0,STARLINK-3989,PAYLOAD,2022-07-12 12:00:00,15.49885723,0.0001435,53.2144,150.25799999999995,63.3739,149.6234,-0.00038749,-0.00022381,0.0,0 STARLINK-3989,1 52630U 22052AJ  22193.50001157 -.00022381  00000-0 -38749-3 0  9995,2 52630  53.2144 150.2580 0001435  63.3739 149.6234 15.49885723  9608,6795.196999999999,92.91,418.037,416.087,0.0
52630.0,STARLINK-3989,PAYLOAD,2022-07-12 14:00:01,15.49882933,0.0001379,53.2151,149.8603,67.3385,250.8849,-0.00028372,-0.00016519,0.0,0 STARLINK-3989,1 52630U 22052AJ  22193.58334491 -.00016519  00000-0 -28372-3 0  9990,2 52630  53.2151 149.8603 0001379  67.3385 250.8849 15.49882933  1300,6795.205,92.91,418.007,416.133,0.0
52630.0,STARLINK-3989,PAYLOAD,2022-07-12 22:00:00,15.50107689,0.0001272,53.2162,148.2691,58.1796,320.8902,-0.0077885,-0.00422779,0.0,0 STARLINK-3989,1 52630U 22052AJ  22193.91667824 -.00422779  00000-0 -77885-2 0  9997,2 52630  53.2162 148.2691 0001272  58.1796 320.8902 15.50107689  1306,6794.5480000000025,92.897,417.278,415.549,0.0
52630.0,STARLINK-3989,PAYLOAD,2022-07-13 04:00:00,15.50018223,0.0001235,53.2171,147.078,65.7016,269.1667,-0.023097,-0.01200311,0.0,0 STARLINK-3989,1 52630U 22052AJ  22194.16667824 -.01200311  00000-0 -23097-1 0  9997,2 52630  53.2171 147.0780 0001235  65.7016 269.1667 15.50018223  9700,6794.81,92.902,417.514,415.836,0.0
52630.0,STARLINK-3989,PAYLOAD,2022-07-13 12:00:02,15.49167258,0.000115,53.2172,145.4868,61.9303,333.5455,-0.021081,-0.01059007,0.0,0 STARLINK-3989,1 52630U 22052AJ  22194.50002315 -.01059007  00000-0 -21081-1 0  9998,2 52630  53.2172 145.4868 0001150  61.9303 333.5455 15.49167258  9761,6797.2980000000025,92.953,419.945,418.381,0.0
52630.0,STARLINK-3989,PAYLOAD,2022-07-13 14:00:01,15.489777300000002,0.0001307,53.2174,145.0886,65.0713,75.3222,-0.021229,-0.0105932,0.0,0 STARLINK-3989,1 52630U 22052AJ  22194.58334491 -.01059320  00000-0 -21229-1 0  9991,2 52630  53.2174 145.0886 0001307  65.0713  75.3222 15.48977730  1301,6797.852,92.965,420.606,418.829,0.0
52630.0,STARLINK-3989,PAYLOAD,2022-07-13 22:00:00,15.48216769,0.0001355,53.2175,143.4991,72.7412,127.0105,-0.021738,-0.01056289,0.0,0 STARLINK-3989,1 52630U 22052AJ  22194.91667824 -.01056289  00000-0 -21738-1 0  9993,2 52630  53.2175 143.4991 0001355  72.7412 127.0105 15.48216769  1308,6800.08,93.01,422.866,421.023,0.0
52630.0,STARLINK-3989,PAYLOAD,2022-07-14 04:00:00,15.47648044,0.0001468,53.2172,142.3097,58.1902,95.4799,-0.022216,-0.01058024,0.0,0 STARLINK-3989,1 52630U 22052AJ  22195.16667824 -.01058024  00000-0 -22216-1 0  9992,2 52630  53.2172 142.3097 0001468  58.1902  95.4799 15.47648044  9867,6801.745,93.044,424.609,422.612,0.0
52630.0,STARLINK-3989,PAYLOAD,2022-07-14 14:00:01,15.46700313,0.0001113,53.2174,140.3259,75.0107,240.7181,-0.023035,-0.01060908,0.0,0 STARLINK-3989,1 52630U 22052AJ  22195.58334491 -.01060908  00000-0 -23035-1 0  9993,2 52630  53.2174 140.3259 0001113  75.0107 240.7181 15.46700313  1307,6804.524,93.101,427.146,425.631,0.0
52630.0,STARLINK-3989,PAYLOAD,2022-07-14 20:00:01,15.46127842,0.0001258,53.2174,139.1371,76.0506,192.2297,-0.023356,-0.01055127,0.0,0 STARLINK-3989,1 52630U 22052AJ  22195.83334491 -.01055127  00000-0 -23356-1 0  9994,2 52630  53.2174 139.1371 0001258  76.0506 192.2297 15.46127842  9961,6806.203,93.136,428.924,427.212,0.0
52630.0,STARLINK-3989,PAYLOAD,2022-07-14 22:00:00,15.45939656,0.0001149,53.2175,138.7419,67.5689,304.78,-0.023585,-0.01058206,0.0,0 STARLINK-3989,1 52630U 22052AJ  22195.91667824 -.01058206  00000-0 -23585-1 0  9997,2 52630  53.2175 138.7419 0001149  67.5689 304.7800 15.45939656  1309,6806.755,93.147,429.403,427.838,0.0
52630.0,STARLINK-3989,PAYLOAD,2022-07-15 12:00:00,15.4461053,0.0001103,53.2174,135.9749,67.92399999999999,311.3137,-0.024694,-0.01058327,0.0,0 STARLINK-3989,1 52630U 22052AJ  22196.50001157 -.01058327  00000-0 -24694-1 0  9990,2 52630  53.2174 135.9749 0001103  67.9240 311.3137 15.44610530 10077,6810.66,93.227,433.276,431.773,0.0
52630.0,STARLINK-3989,PAYLOAD,2022-07-15 14:00:01,15.444189499999998,0.000126,53.2176,135.5795,68.2366,54.6151,-0.024782,-0.01055477,0.0,0 STARLINK-3989,1 52630U 22052AJ  22196.58334491 -.01055477  00000-0 -24782-1 0  9999,2 52630  53.2176 135.5795 0001260  68.2366  54.6151 15.44418950  1304,6811.223000000001,93.239,433.946,432.23,0.0
52630.0,STARLINK-3989,PAYLOAD,2022-07-15 22:00:00,15.43659074,0.0001404,53.2178,134.0013,67.2699,109.4634,-0.025407,-0.010545,0.0,0 STARLINK-3989,1 52630U 22052AJ  22196.91667824 -.01054500  00000-0 -25407-1 0  9996,2 52630  53.2178 134.0013 0001404  67.2699 109.4634 15.43659074  1309,6813.458000000001,93.285,436.28,434.366,0.0
52630.0,STARLINK-3989,PAYLOAD,2022-07-16 04:00:00,15.43091216,0.0001373,53.2176,132.82,65.1032,61.4412,-0.025974,-0.01071947,0.0,0 STARLINK-3989,1 52630U 22052AJ  22197.16667824 -.01071947  00000-0 -25974-1 0  9997,2 52630  53.2176 132.8200 0001373  65.1032  61.4412 15.43091216 10178,6815.129,93.319,437.93,436.059,0.0
52630.0,STARLINK-3989,PAYLOAD,2022-07-16 14:00:01,15.42141479,0.0001221,53.2176,130.8495,71.4152,210.3438,-0.026809,-0.01071463,0.0,0 STARLINK-3989,1 52630U 22052AJ  22197.58334491 -.01071463  00000-0 -26809-1 0  9995,2 52630  53.2176 130.8495 0001221  71.4152 210.3438 15.42141479  1301,6817.927,93.377,440.625,438.96,0.0
52630.0,STARLINK-3989,PAYLOAD,2022-07-16 20:00:01,15.41571073,0.0001359,53.2177,129.6693,72.4812,157.7212,-0.02726,-0.01069036,0.0,0 STARLINK-3989,1 52630U 22052AJ  22197.83334491 -.01069036  00000-0 -27260-1 0  9998,2 52630  53.2177 129.6693 0001359  72.4812 157.7212 15.41571073 10270,6819.609,93.411,442.401,440.547,0.0
52630.0,STARLINK-3989,PAYLOAD,2022-07-16 22:00:00,15.41382279,0.0001245,53.2178,129.2768,58.8009,274.1014,-0.027503,-0.01071516,0.0,0 STARLINK-3989,1 52630U 22052AJ  22197.91667824 -.01071516  00000-0 -27503-1 0  9992,2 52630  53.2178 129.2768 0001245  58.8009 274.1014 15.41382279  1306,6820.166,93.423,442.88,441.182,0.0
52630.0,STARLINK-3989,PAYLOAD,2022-07-17 12:00:00,15.40053797,0.0001158,53.2174,126.5283,69.8814,260.3268,-0.028799,-0.0107319999999999,0.0,0 STARLINK-3989,1 52630U 22052AJ  22198.50001157 -.01073200  00000-0 -28799-1 0  9999,2 52630  53.2174 126.5283 0001158  69.8814 260.3268 15.40053797 10377,6824.087,93.503,446.74300000000005,445.162,0.0
52630.0,STARLINK-3989,PAYLOAD,2022-07-17 14:00:01,15.39861104,0.0001212,53.2176,126.1357,62.8658,9.5878,-0.028839,-0.01068279,0.0,0 STARLINK-3989,1 52630U 22052AJ  22198.58334491 -.01068279  00000-0 -28839-1 0  9992,2 52630  53.2176 126.1357 0001212  62.8658   9.5878 15.39861104  1307,6824.656999999997,93.515,447.349,445.695,0.0
52630.0,STARLINK-3989,PAYLOAD,2022-07-17 22:00:00,15.39102851,0.0001343,53.2177,124.5686,63.9775,56.8812,-0.029626,-0.01070115,0.0,0 STARLINK-3989,1 52630U 22052AJ  22198.91667824 -.01070115  00000-0 -29626-1 0  9995,2 52630  53.2177 124.5686 0001343  63.9775  56.8812 15.39102851  1302,6826.898,93.561,449.68,447.846,0.0
52630.0,STARLINK-3989,PAYLOAD,2022-07-18 12:00:00,15.3777361,0.0001236,53.2175,121.8295,75.1366,38.2364,-0.030931,-0.01069537,0.0,0 STARLINK-3989,1 52630U 22052AJ  22199.50001157 -.01069537  00000-0 -30931-1 0  9999,2 52630  53.2175 121.8295 0001236  75.1366  38.2364 15.37773610 10534,6830.831,93.642,453.541,451.852,0.0
52630.0,STARLINK-3989,PAYLOAD,2022-07-18 14:00:01,15.37581887,0.0001317,53.2175,121.4382,74.8781,140.0555,-0.03102,-0.01066221,0.0,0 STARLINK-3989,1 52630U 22052AJ  22199.58334491 -.01066221  00000-0 -31020-1 0  9994,2 52630  53.2175 121.4382 0001317  74.8781 140.0555 15.37581887  1306,6831.399,93.654,454.164,452.365,0.0
52630.0,STARLINK-3989,PAYLOAD,2022-07-18 22:00:00,15.36823049,0.0001304,53.2175,119.8767,77.0579,183.5428,-0.031826,-0.01067124,0.0,0 STARLINK-3989,1 52630U 22052AJ  22199.91667824 -.01067124  00000-0 -31826-1 0  9997,2 52630  53.2175 119.8767 0001304  77.0579 183.5428 15.36823049  1309,6833.648,93.7,456.404,454.622,0.0
52630.0,STARLINK-3989,PAYLOAD,2022-07-19 04:00:00,15.36252478,0.0001413,53.2175,118.7075,70.2754,133.9768,-0.032361,-0.01065342,0.0,0 STARLINK-3989,1 52630U 22052AJ  22200.16667824 -.01065342  00000-0 -32361-1 0  9992,2 52630  53.2175 118.7075 0001413  70.2754 133.9768 15.36252478 10634,6835.34,93.735,458.171,456.239,0.0
52630.0,STARLINK-3989,PAYLOAD,2022-07-19 14:00:01,15.35302877,0.0001105,53.2174,116.757,74.0431,275.1565,-0.033376,-0.010655,0.0,0 STARLINK-3989,1 52630U 22052AJ  22200.58334491 -.01065500  00000-0 -33376-1 0  9992,2 52630  53.2174 116.7570 0001105  74.0431 275.1565 15.35302877  1309,6838.158,93.793,460.779,459.267,0.0
